{"type": "FeatureCollection", "features": [ {"type": "Feature", "properties": {"norad_id": 59598, "name": "GSAT0225 (GALILEO 29)", "group": "gnss", "lat": -53.69928658738039, "lon": -1.5267358244290152, "alt_km": 23226.89003201835, "timestamp": "2025-12-16T19:34:24.510690+00:00", "meta": {"OBJECT_NAME": "GSAT0225 (GALILEO 29)", "OBJECT_ID": "2024-079A", "EPOCH": "2025-12-13T14:17:14.853120", "MEAN_MOTION": 1.7047497, "ECCENTRICITY": 0.00020845, "INCLINATION": 55.0023, "RA_OF_ASC_NODE": 106.2711, "ARG_OF_PERICENTER": 178.8578, "MEAN_ANOMALY": 264.3288, "EPHEMERIS_TYPE": 0, "CLASSIFICATION_TYPE": "U", "NORAD_CAT_ID": 59598, "ELEMENT_SET_NO": 999, "REV_AT_EPOCH": 1015, "BSTAR": 0, "MEAN_MOTION_DOT": -1e-08, "MEAN_MOTION_DDOT": 0}, "tle": {"line1": "1 59598U 24079A   25347.59531080 -.00000001  00000+0  00000+0 0  9990", "line2": "2 59598  55.0023 106.2711 0002084 178.8578 264.3288  1.70474970 10158"}}, "geometry": {"type": "Point", "coordinates": [-1.5267358244290152, -53.69928658738039]}}, {"type": "Feature", "properties": {"norad_id": 59600, "name": "GSAT0227 (GALILEO 30)", "group": "gnss", "lat": 26.420991027343078, "lon": -94.18500906874294, "alt_km": 23210.770058509297, "timestamp": "2025-12-16T19:34:24.510702+00:00", "meta": {"OBJECT_NAME": "GSAT0227 (GALILEO 30)", "OBJECT_ID": "2024-079C", "EPOCH": "2025-12-08T22:48:42.234912", "MEAN_MOTION": 1.70474719, "ECCENTRICITY": 0.0003262, "INCLINATION": 54.9946, "RA_OF_ASC_NODE": 106.4003, "ARG_OF_PERICENTER": 114.182, "MEAN_ANOMALY": 245.816, "EPHEMERIS_TYPE": 0, "CLASSIFICATION_TYPE": "U", "NORAD_CAT_ID": 59600, "ELEMENT_SET_NO": 999, "REV_AT_EPOCH": 1012, "BSTAR": 0, "MEAN_MOTION_DOT": 9e-08, "MEAN_MOTION_DDOT": 0}, "tle": {"line1": "1 59600U 24079C   25342.95048883  .00000009  00000+0  00000+0 0  9990", "line2": "2 59600  54.9946 106.4003 0003262 114.1820 245.8160  1.70474719 10123"}}, "geometry": {"type": "Point", "coordinates": [-94.18500906874294, 26.420991027343078]}}, {"type": "Feature", "properties": {"norad_id": 61182, "name": "GSAT0232 (GALILEO 32)", "group": "gnss", "lat": -15.162441586108478, "lon": -144.5085733911336, "alt_km": 23228.070825035753, "timestamp": "2025-12-16T19:34:24.510713+00:00", "meta": {"OBJECT_NAME": "GSAT0232 (GALILEO 32)", "OBJECT_ID": "2024-167A", "EPOCH": "2025-12-15T09:09:10.050912", "MEAN_MOTION": 1.70473627, "ECCENTRICITY": 0.00018812, "INCLINATION": 55.2399, "RA_OF_ASC_NODE": 226.3583, "ARG_OF_PERICENTER": 210.2547, "MEAN_ANOMALY": 331.0661, "EPHEMERIS_TYPE": 0, "CLASSIFICATION_TYPE": "U", "NORAD_CAT_ID": 61182, "ELEMENT_SET_NO": 999, "REV_AT_EPOCH": 774, "BSTAR": 0, "MEAN_MOTION_DOT": 4.1e-07, "MEAN_MOTION_DDOT": 0}, "tle": {"line1": "1 61182U 24167A   25349.38136633  .00000041  00000+0  00000+0 0  9997", "line2": "2 61182  55.2399 226.3583 0001881 210.2547 331.0661  1.70473627  7746"}}, "geometry": {"type": "Point", "coordinates": [-144.5085733911336, -15.162441586108478]}}, {"type": "Feature", "properties": {"norad_id": 61183, "name": "GSAT0226 (GALILEO 31)", "group": "gnss", "lat": 55.03445711374852, "lon": -36.500113515153814, "alt_km": 23213.51956418803, "timestamp": "2025-12-16T19:34:24.510724+00:00", "meta": {"OBJECT_NAME": "GSAT0226 (GALILEO 31)", "OBJECT_ID": "2024-167B", "EPOCH": "2025-12-12T20:26:08.685024", "MEAN_MOTION": 1.70473602, "ECCENTRICITY": 8.42e-05, "INCLINATION": 55.2391, "RA_OF_ASC_NODE": 226.433, "ARG_OF_PERICENTER": 113.0334, "MEAN_ANOMALY": 68.3038, "EPHEMERIS_TYPE": 0, "CLASSIFICATION_TYPE": "U", "NORAD_CAT_ID": 61183, "ELEMENT_SET_NO": 999, "REV_AT_EPOCH": 767, "BSTAR": 0, "MEAN_MOTION_DOT": 1.9e-07, "MEAN_MOTION_DDOT": 0}, "tle": {"line1": "1 61183U 24167B   25346.85148941  .00000019  00000+0  00000+0 0  9997", "line2": "2 61183  55.2391 226.4330 0000842 113.0334  68.3038  1.70473602  7673"}}, "geometry": {"type": "Point", "coordinates": [-36.500113515153814, 55.03445711374852]}}, {"type": "Feature", "properties": {"norad_id": 61186, "name": "BEIDOU-3 M25 (C47)", "group": "gnss", "lat": -40.329478439415034, "lon": -88.48810457730643, "alt_km": 21517.94332336575, "timestamp": "2025-12-16T19:34:24.510736+00:00", "meta": {"OBJECT_NAME": "BEIDOU-3 M25 (C47)", "OBJECT_ID": "2024-168B", "EPOCH": "2025-12-13T09:51:38.613312", "MEAN_MOTION": 1.86230198, "ECCENTRICITY": 0.00054273, "INCLINATION": 54.6413, "RA_OF_ASC_NODE": 308.6962, "ARG_OF_PERICENTER": 297.8799, "MEAN_ANOMALY": 246.8955, "EPHEMERIS_TYPE": 0, "CLASSIFICATION_TYPE": "U", "NORAD_CAT_ID": 61186, "ELEMENT_SET_NO": 999, "REV_AT_EPOCH": 832, "BSTAR": 0, "MEAN_MOTION_DOT": -9.7e-07, "MEAN_MOTION_DDOT": 0}, "tle": {"line1": "1 61186U 24168B   25347.41086358 -.00000097  00000+0  00000+0 0  9994", "line2": "2 61186  54.6413 308.6962 0005427 297.8799 246.8955  1.86230198  8320"}}, "geometry": {"type": "Point", "coordinates": [-88.48810457730643, -40.329478439415034]}}, {"type": "Feature", "properties": {"norad_id": 61187, "name": "BEIDOU-3 M27 (C49)", "group": "gnss", "lat": 53.94188047711227, "lon": 25.64648507955155, "alt_km": 21523.542993204388, "timestamp": "2025-12-16T19:34:24.510747+00:00", "meta": {"OBJECT_NAME": "BEIDOU-3 M27 (C49)", "OBJECT_ID": "2024-168C", "EPOCH": "2025-12-14T06:33:38.742048", "MEAN_MOTION": 1.86230381, "ECCENTRICITY": 0.00024262, "INCLINATION": 54.6359, "RA_OF_ASC_NODE": 308.6501, "ARG_OF_PERICENTER": 337.7802, "MEAN_ANOMALY": 200.2001, "EPHEMERIS_TYPE": 0, "CLASSIFICATION_TYPE": "U", "NORAD_CAT_ID": 61187, "ELEMENT_SET_NO": 999, "REV_AT_EPOCH": 581, "BSTAR": 0, "MEAN_MOTION_DOT": -9.9e-07, "MEAN_MOTION_DDOT": 0}, "tle": {"line1": "1 61187U 24168C   25348.27336507 -.00000099  00000+0  00000+0 0  9996", "line2": "2 61187  54.6359 308.6501 0002426 337.7802 200.2001  1.86230381  5815"}}, "geometry": {"type": "Point", "coordinates": [25.64648507955155, 53.94188047711227]}}, {"type": "Feature", "properties": {"norad_id": 62339, "name": "GPS BIII-7  (PRN 01)", "group": "gnss", "lat": -29.085491995623663, "lon": -41.439463453913774, "alt_km": 20154.995299080423, "timestamp": "2025-12-16T19:34:24.510758+00:00", "meta": {"OBJECT_NAME": "GPS BIII-7  (PRN 01)", "OBJECT_ID": "2024-242A", "EPOCH": "2025-12-15T08:51:56.700864", "MEAN_MOTION": 2.0056809, "ECCENTRICITY": 0.00123957, "INCLINATION": 54.9228, "RA_OF_ASC_NODE": 341.6333, "ARG_OF_PERICENTER": 345.2723, "MEAN_ANOMALY": 14.1201, "EPHEMERIS_TYPE": 0, "CLASSIFICATION_TYPE": "U", "NORAD_CAT_ID": 62339, "ELEMENT_SET_NO": 999, "REV_AT_EPOCH": 756, "BSTAR": 0, "MEAN_MOTION_DOT": -9.1e-07, "MEAN_MOTION_DDOT": 0}, "tle": {"line1": "1 62339U 24242A   25349.36940626 -.00000091  00000+0  00000+0 0  9995", "line2": "2 62339  54.9228 341.6333 0012395 345.2723  14.1201  2.00568090  7561"}}, "geometry": {"type": "Point", "coordinates": [-41.439463453913774, -29.085491995623663]}}, {"type": "Feature", "properties": {"norad_id": 62850, "name": "NVS-02 (IRNSS-1K)", "group": "gnss", "lat": -3.1798404007414742, "lon": 154.50958378468923, "alt_km": 31007.044236120015, "timestamp": "2025-12-16T19:34:24.510770+00:00", "meta": {"OBJECT_NAME": "NVS-02 (IRNSS-1K)", "OBJECT_ID": "2025-020A", "EPOCH": "2025-12-15T18:21:21.469248", "MEAN_MOTION": 2.17597507, "ECCENTRICITY": 0.73475549, "INCLINATION": 20.9754, "RA_OF_ASC_NODE": 326.5645, "ARG_OF_PERICENTER": 28.1968, "MEAN_ANOMALY": 357.0206, "EPHEMERIS_TYPE": 0, "CLASSIFICATION_TYPE": "U", "NORAD_CAT_ID": 62850, "ELEMENT_SET_NO": 999, "REV_AT_EPOCH": 698, "BSTAR": 0.00030510821, "MEAN_MOTION_DOT": 5.35e-06, "MEAN_MOTION_DDOT": 0}, "tle": {"line1": "1 62850U 25020A   25349.76483182  .00000535  00000+0  30511-3 0  9997", "line2": "2 62850  20.9754 326.5645 7347554  28.1968 357.0206  2.17597507  6989"}}, "geometry": {"type": "Point", "coordinates": [154.50958378468923, -3.1798404007414742]}}, {"type": "Feature", "properties": {"norad_id": 62876, "name": "QZS-6 (QZSS/PRN 200)", "group": "gnss", "lat": 0.04242146645916335, "lon": 109.81267434194768, "alt_km": 35791.87591576072, "timestamp": "2025-12-16T19:34:24.510786+00:00", "meta": {"OBJECT_NAME": "QZS-6 (QZSS/PRN 200)", "OBJECT_ID": "2025-023A", "EPOCH": "2025-12-15T20:40:01.894656", "MEAN_MOTION": 1.00273887, "ECCENTRICITY": 0.00015462, "INCLINATION": 0.0394, "RA_OF_ASC_NODE": 63.5297, "ARG_OF_PERICENTER": 210.9098, "MEAN_ANOMALY": 210.8479, "EPHEMERIS_TYPE": 0, "CLASSIFICATION_TYPE": "U", "NORAD_CAT_ID": 62876, "ELEMENT_SET_NO": 999, "REV_AT_EPOCH": 312, "BSTAR": 0, "MEAN_MOTION_DOT": -2.11e-06, "MEAN_MOTION_DDOT": 0}, "tle": {"line1": "1 62876U 25023A   25349.86113304 -.00000211  00000+0  00000+0 0  9993", "line2": "2 62876   0.0394  63.5297 0001546 210.9098 210.8479  1.00273887  3127"}}, "geometry": {"type": "Point", "coordinates": [109.81267434194768, 0.04242146645916335]}}, {"type": "Feature", "properties": {"norad_id": 63130, "name": "COSMOS 2584 (704K)", "group": "gnss", "lat": 12.64545819794603, "lon": -106.99108931061556, "alt_km": 19116.558438540094, "timestamp": "2025-12-16T19:34:24.510800+00:00", "meta": {"OBJECT_NAME": "COSMOS 2584 (704K)", "OBJECT_ID": "2025-042A", "EPOCH": "2025-12-14T17:19:43.603680", "MEAN_MOTION": 2.13103043, "ECCENTRICITY": 0.00076907, "INCLINATION": 64.977, "RA_OF_ASC_NODE": 79.0784, "ARG_OF_PERICENTER": 217.9412, "MEAN_ANOMALY": 142.0178, "EPHEMERIS_TYPE": 0, "CLASSIFICATION_TYPE": "U", "NORAD_CAT_ID": 63130, "ELEMENT_SET_NO": 999, "REV_AT_EPOCH": 611, "BSTAR": 0, "MEAN_MOTION_DOT": -5.6e-07, "MEAN_MOTION_DDOT": 0}, "tle": {"line1": "1 63130U 25042A   25348.72203245 -.00000056  00000+0  00000+0 0  9993", "line2": "2 63130  64.9770  79.0784 0007690 217.9412 142.0178  2.13103043  6119"}}, "geometry": {"type": "Point", "coordinates": [-106.99108931061556, 12.64545819794603]}}]}